{
  "norad_id": 63659,
  "name": "STARLINK-33771",
  "history": [
    {
      "epoch": "2026-03-28T21:10:09.735168Z",
      "apogee_km": 484.025484935295,
      "perigee_km": 481.85052415885366,
      "latitude_deg": -4.978287217775982e-06,
      "longitude_deg": 116.38660040245846,
      "height_km": 482.87766144030525,
      "semi_major_axis_km": 6861.075004547074,
      "eccentricity": 0.0001585,
      "inclination_deg": 43.0009,
      "raan_deg": 260.2233,
      "arg_perigee_deg": 261.3932,
      "mean_anomaly_deg": 98.674,
      "mean_motion_rev_day": 15.27617101
    },
    {
      "epoch": "2026-03-28T21:10:09.736032Z",
      "apogee_km": 484.0254163245454,
      "perigee_km": 481.8505927696033,
      "latitude_deg": -5.755484368128245e-06,
      "longitude_deg": 116.38659596379094,
      "height_km": 482.8776511739187,
      "semi_major_axis_km": 6861.075004547074,
      "eccentricity": 0.00015849,
      "inclination_deg": 43.0009,
      "raan_deg": 260.2233,
      "arg_perigee_deg": 261.3932,
      "mean_anomaly_deg": 98.674,
      "mean_motion_rev_day": 15.27617101
    },
    {
      "epoch": "2026-03-30T04:00:01.999584Z",
      "apogee_km": 484.2315253869274,
      "perigee_km": 481.90283268856183,
      "latitude_deg": -33.149519222818675,
      "longitude_deg": -130.45804987894797,
      "height_km": 491.5786989206318,
      "semi_major_axis_km": 6861.204179037744,
      "eccentricity": 0.0001697,
      "inclination_deg": 43.0013,
      "raan_deg": 252.9663,
      "arg_perigee_deg": 283.1596,
      "mean_anomaly_deg": 309.7954,
      "mean_motion_rev_day": 15.27573961
    },
    {
      "epoch": "2026-03-30T14:00:03.000384Z",
      "apogee_km": 484.2523216893296,
      "perigee_km": 482.0873049374568,
      "latitude_deg": 4.77466404953819,
      "longitude_deg": -142.25911807651394,
      "height_km": 482.5639011978354,
      "semi_major_axis_km": 6861.306813313393,
      "eccentricity": 0.00015777,
      "inclination_deg": 43.0011,
      "raan_deg": 250.6161,
      "arg_perigee_deg": 271.1038,
      "mean_anomaly_deg": 95.9313,
      "mean_motion_rev_day": 15.27539686
    },
    {
      "epoch": "2026-03-30T22:00:00.999936Z",
      "apogee_km": 484.43759070669057,
      "perigee_km": 482.0127853094491,
      "latitude_deg": 27.32820300969528,
      "longitude_deg": 123.86857950671944,
      "height_km": 484.1273438634641,
      "semi_major_axis_km": 6861.36218800807,
      "eccentricity": 0.0001767,
      "inclination_deg": 43.0014,
      "raan_deg": 248.7338,
      "arg_perigee_deg": 274.9789,
      "mean_anomaly_deg": 127.1376,
      "mean_motion_rev_day": 15.27521194
    },
    {
      "epoch": "2026-03-31T19:47:12.767712Z",
      "apogee_km": 484.31757927425224,
      "perigee_km": 481.6952502611275,
      "latitude_deg": 3.681519317228004e-05,
      "longitude_deg": 117.60815410500211,
      "height_km": 482.6662194351892,
      "semi_major_axis_km": 6861.143414767689,
      "eccentricity": 0.0001911,
      "inclination_deg": 42.9995,
      "raan_deg": 243.6076,
      "arg_perigee_deg": 275.1306,
      "mean_anomaly_deg": 84.9328,
      "mean_motion_rev_day": 15.27594254
    },
    {
      "epoch": "2026-04-01T16:11:12.283872Z",
      "apogee_km": 483.4490196448669,
      "perigee_km": 482.804060872083,
      "latitude_deg": -5.329035403299326e-05,
      "longitude_deg": 165.96818238219018,
      "height_km": 482.8920086071605,
      "semi_major_axis_km": 6861.263540258475,
      "eccentricity": 4.7e-05,
      "inclination_deg": 43.0014,
      "raan_deg": 238.8035,
      "arg_perigee_deg": 271.8784,
      "mean_anomaly_deg": 88.2013,
      "mean_motion_rev_day": 15.27554137
    },
    {
      "epoch": "2026-04-02T18:51:52.801056Z",
      "apogee_km": 483.60788059236893,
      "perigee_km": 482.4268014841027,
      "latitude_deg": -1.8821747060622112e-05,
      "longitude_deg": 118.42747518793504,
      "height_km": 482.8873791979639,
      "semi_major_axis_km": 6861.1543410382355,
      "eccentricity": 8.607e-05,
      "inclination_deg": 43.0025,
      "raan_deg": 232.5272,
      "arg_perigee_deg": 260.8855,
      "mean_anomaly_deg": 99.1899,
      "mean_motion_rev_day": 15.27590605
    },
    {
      "epoch": "2026-04-03T18:24:14.189760Z",
      "apogee_km": 484.09245573514363,
      "perigee_km": 482.3002754600493,
      "latitude_deg": 8.977311884405853e-07,
      "longitude_deg": 118.8326530491514,
      "height_km": 482.9558923748854,
      "semi_major_axis_km": 6861.333365597596,
      "eccentricity": 0.0001306,
      "inclination_deg": 43.0026,
      "raan_deg": 226.9882,
      "arg_perigee_deg": 271.1122,
      "mean_anomaly_deg": 88.958,
      "mean_motion_rev_day": 15.27530819
    },
    {
      "epoch": "2026-04-04T10:05:48.422976Z",
      "apogee_km": 483.9860227986892,
      "perigee_km": 481.9995884973587,
      "latitude_deg": 1.5047933851467846e-05,
      "longitude_deg": -120.89615282306268,
      "height_km": 482.58065588563153,
      "semi_major_axis_km": 6861.129805648024,
      "eccentricity": 0.00014476,
      "inclination_deg": 43.0036,
      "raan_deg": 223.2965,
      "arg_perigee_deg": 280.987,
      "mean_anomaly_deg": 79.0819,
      "mean_motion_rev_day": 15.27598799
    },
    {
      "epoch": "2026-04-05T14:20:37.827456Z",
      "apogee_km": 483.8313066228384,
      "perigee_km": 482.37617468656117,
      "latitude_deg": -1.6788349587737714e-05,
      "longitude_deg": 167.59089420661175,
      "height_km": 483.0674486153726,
      "semi_major_axis_km": 6861.2407406547,
      "eccentricity": 0.00010604,
      "inclination_deg": 43.0031,
      "raan_deg": 216.6495,
      "arg_perigee_deg": 255.1063,
      "mean_anomaly_deg": 104.9671,
      "mean_motion_rev_day": 15.27561751
    },
    {
      "epoch": "2026-04-05T15:54:47.283264Z",
      "apogee_km": 484.04823325435973,
      "perigee_km": 482.1567267545115,
      "latitude_deg": -2.5066181296871e-06,
      "longitude_deg": 143.6179615335936,
      "height_km": 483.0720983225295,
      "semi_major_axis_km": 6861.239480004435,
      "eccentricity": 0.00013784,
      "inclination_deg": 43.0033,
      "raan_deg": 216.2804,
      "arg_perigee_deg": 258.2487,
      "mean_anomaly_deg": 101.821,
      "mean_motion_rev_day": 15.27562172
    },
    {
      "epoch": "2026-04-07T08:42:50.749632Z",
      "apogee_km": 484.1035054709455,
      "perigee_km": 481.86184045139726,
      "latitude_deg": -3.3496124736424016e-05,
      "longitude_deg": -119.67435486703707,
      "height_km": 482.7858747108464,
      "semi_major_axis_km": 6861.119672961171,
      "eccentricity": 0.00016336,
      "inclination_deg": 43.0016,
      "raan_deg": 206.6782,
      "arg_perigee_deg": 268.6639,
      "mean_anomaly_deg": 91.4025,
      "mean_motion_rev_day": 15.27602183
    },
    {
      "epoch": "2026-04-08T08:15:11.214720Z",
      "apogee_km": 483.77594716777185,
      "perigee_km": 482.2004955944394,
      "latitude_deg": -1.2096442778477136e-06,
      "longitude_deg": -119.27010768873646,
      "height_km": 483.4393180997782,
      "semi_major_axis_km": 6861.125221381106,
      "eccentricity": 0.00011481,
      "inclination_deg": 42.9975,
      "raan_deg": 201.1344,
      "arg_perigee_deg": 210.9614,
      "mean_anomaly_deg": 149.117,
      "mean_motion_rev_day": 15.2760033
    },
    {
      "epoch": "2026-04-09T07:47:31.976160Z",
      "apogee_km": 483.8386907577933,
      "perigee_km": 482.18721196450133,
      "latitude_deg": 5.9177466883658795e-05,
      "longitude_deg": -118.85826876007685,
      "height_km": 483.43163247030344,
      "semi_major_axis_km": 6861.149951361147,
      "eccentricity": 0.00012035,
      "inclination_deg": 42.999,
      "raan_deg": 195.5994,
      "arg_perigee_deg": 218.8861,
      "mean_anomaly_deg": 141.1905,
      "mean_motion_rev_day": 15.27592071
    },
    {
      "epoch": "2026-04-10T05:45:43.362144Z",
      "apogee_km": 483.9643425841923,
      "perigee_km": 482.055571500744,
      "latitude_deg": -8.707871218201981e-06,
      "longitude_deg": -94.4757541293053,
      "height_km": 482.96708476136837,
      "semi_major_axis_km": 6861.146957042468,
      "eccentricity": 0.0001391,
      "inclination_deg": 43.001,
      "raan_deg": 190.4317,
      "arg_perigee_deg": 259.1062,
      "mean_anomaly_deg": 100.9633,
      "mean_motion_rev_day": 15.27593071
    },
    {
      "epoch": "2026-04-11T13:08:51.461376Z",
      "apogee_km": 483.97605036177356,
      "perigee_km": 482.10020508185335,
      "latitude_deg": -2.0536080706493424e-05,
      "longitude_deg": 146.06682369505197,
      "height_km": 482.9351167358733,
      "semi_major_axis_km": 6861.175127721813,
      "eccentricity": 0.0001367,
      "inclination_deg": 43.0023,
      "raan_deg": 183.047,
      "arg_perigee_deg": 262.6442,
      "mean_anomaly_deg": 97.4254,
      "mean_motion_rev_day": 15.27583663
    },
    {
      "epoch": "2026-04-13T05:56:55.189536Z",
      "apogee_km": 483.8634051456984,
      "perigee_km": 482.16677945631363,
      "latitude_deg": 3.563956838229833e-05,
      "longitude_deg": -117.22699045788623,
      "height_km": 482.9159347091618,
      "semi_major_axis_km": 6861.152092301006,
      "eccentricity": 0.00012364,
      "inclination_deg": 43.0006,
      "raan_deg": 173.4443,
      "arg_perigee_deg": 261.5781,
      "mean_anomaly_deg": 98.4931,
      "mean_motion_rev_day": 15.27591356
    },
    {
      "epoch": "2026-04-14T13:20:03.306048Z",
      "apogee_km": 483.3269400555055,
      "perigee_km": 482.76432307971663,
      "latitude_deg": 1.9453776253008393e-05,
      "longitude_deg": 123.3133144690538,
      "height_km": 482.93613004755474,
      "semi_major_axis_km": 6861.182631567611,
      "eccentricity": 4.1e-05,
      "inclination_deg": 42.9992,
      "raan_deg": 166.0574,
      "arg_perigee_deg": 245.9091,
      "mean_anomaly_deg": 114.1718,
      "mean_motion_rev_day": 15.27581157
    },
    {
      "epoch": "2026-04-15T20:43:10.910208Z",
      "apogee_km": 483.55902627508294,
      "perigee_km": 482.50377857479,
      "latitude_deg": 3.1376931145604766e-05,
      "longitude_deg": 3.858491135135053,
      "height_km": 482.8313536265199,
      "semi_major_axis_km": 6861.168402424936,
      "eccentricity": 7.69e-05,
      "inclination_deg": 42.9981,
      "raan_deg": 158.6732,
      "arg_perigee_deg": 267.3908,
      "mean_anomaly_deg": 92.6856,
      "mean_motion_rev_day": 15.27585909
    },
    {
      "epoch": "2026-04-16T20:15:33.098976Z",
      "apogee_km": 484.52797811245364,
      "perigee_km": 481.6023615072472,
      "latitude_deg": -1.1780665027850038e-05,
      "longitude_deg": 4.260360993926099,
      "height_km": 483.01917948020866,
      "semi_major_axis_km": 6861.202169809851,
      "eccentricity": 0.0002132,
      "inclination_deg": 43.0047,
      "raan_deg": 153.1343,
      "arg_perigee_deg": 263.0798,
      "mean_anomaly_deg": 96.9811,
      "mean_motion_rev_day": 15.27574632
    },
    {
      "epoch": "2026-04-17T19:47:53.659968Z",
      "apogee_km": 483.9850441350827,
      "perigee_km": 482.02042538343176,
      "latitude_deg": -3.067531401080329e-07,
      "longitude_deg": 4.667889461634702,
      "height_km": 482.8500388743162,
      "semi_major_axis_km": 6861.1397347592565,
      "eccentricity": 0.00014317,
      "inclination_deg": 43.0018,
      "raan_deg": 147.5942,
      "arg_perigee_deg": 265.8908,
      "mean_anomaly_deg": 94.178,
      "mean_motion_rev_day": 15.27595483
    }
  ]
}